[{"OBJECT_NAME":"STARLINK-31121","OBJECT_ID":"2023-211U","EPOCH":"2026-03-09T11:01:09.708096","MEAN_MOTION":15.27644877,"ECCENTRICITY":0.00011028,"INCLINATION":42.9995,"RA_OF_ASC_NODE":86.2025,"ARG_OF_PERICENTER":209.0829,"MEAN_ANOMALY":150.9962,"EPHEMERIS_TYPE":0,"CLASSIFICATION_TYPE":"U","NORAD_CAT_ID":58685,"ELEMENT_SET_NO":999,"REV_AT_EPOCH":12243,"BSTAR":-0.0006483732,"MEAN_MOTION_DOT":-0.00018096,"MEAN_MOTION_DDOT":0},{"OBJECT_NAME":"FLOCK 4G-12","OBJECT_ID":"2025-009S","EPOCH":"2026-03-09T17:16:21.445824","MEAN_MOTION":15.27059194,"ECCENTRICITY":0.00028933,"INCLINATION":97.4059,"RA_OF_ASC_NODE":151.1894,"ARG_OF_PERICENTER":310.1775,"MEAN_ANOMALY":49.9211,"EPHEMERIS_TYPE":0,"CLASSIFICATION_TYPE":"U","NORAD_CAT_ID":62625,"ELEMENT_SET_NO":999,"REV_AT_EPOCH":6371,"BSTAR":0.00043519262,"MEAN_MOTION_DOT":0.00011487,"MEAN_MOTION_DDOT":0}]
